[{"OBJECT_NAME":"STARLINK-35184","OBJECT_ID":"2025-198Q","EPOCH":"2026-03-09T21:07:00.305760","MEAN_MOTION":15.30206003,"ECCENTRICITY":0.00011287,"INCLINATION":53.1599,"RA_OF_ASC_NODE":269.799,"ARG_OF_PERICENTER":71.233,"MEAN_ANOMALY":288.8793,"EPHEMERIS_TYPE":0,"CLASSIFICATION_TYPE":"U","NORAD_CAT_ID":65506,"ELEMENT_SET_NO":999,"REV_AT_EPOCH":2865,"BSTAR":0.0010003717,"MEAN_MOTION_DOT":0.00029392,"MEAN_MOTION_DDOT":0},{"OBJECT_NAME":"SPACEMOBILE-005 DEB","OBJECT_ID":"2024-163K","EPOCH":"2026-03-09T07:33:15.902496","MEAN_MOTION":15.31481997,"ECCENTRICITY":0.00072885,"INCLINATION":52.9762,"RA_OF_ASC_NODE":31.7924,"ARG_OF_PERICENTER":175.8731,"MEAN_ANOMALY":184.2329,"EPHEMERIS_TYPE":0,"CLASSIFICATION_TYPE":"U","NORAD_CAT_ID":62373,"ELEMENT_SET_NO":999,"REV_AT_EPOCH":8280,"BSTAR":0.00063853778,"MEAN_MOTION_DOT":0.00019381,"MEAN_MOTION_DDOT":0}]
